STARLINK-31789          
1 59644U 24082P   24258.50160031  .00009126  00000+0  22483-3 0  9990
2 59644  43.0027 334.3817 0001733 259.6588 100.4073 15.40786016 22032
STARLINK-31795          
1 59645U 24082Q   24258.87471568  .00000064  00000+0  87808-5 0  9997
2 59645  43.0070 321.3989 0001071 262.8723  97.2012 15.40740815 22043
STARLINK-31796          
1 59646U 24082R   24258.49488975  .00005312  00000+0  13437-3 0  9992
2 59646  43.0006 334.3320 0001309 274.7524  85.3183 15.40695008 21994
STARLINK-31801          
1 59647U 24082S   24258.26680109 -.00005781  00000+0 -13125-3 0  9997
2 59647  43.0004 335.1908 0001022 245.1656 114.9094 15.40695781 21857
STARLINK-31790          
1 59648U 24082T   24258.40466566 -.00159636  00000+0 -39520-2 0  9998
2 59648  42.9924 291.6092 0000525 306.8632  53.2176 15.40261977 22294
STARLINK-31803          
1 59649U 24082U   24258.63737567  .00042444  00000+0  10023-2 0  9999
2 59649  43.0025 333.6838 0001207 247.2477 112.8252 15.41159263 21906
STARLINK-31787          
1 59650U 24082V   24258.68712576 -.00006607  00000+0 -15125-3 0  9991
2 59650  43.0017 333.1924 0000915 266.5110  93.5642 15.40659121 22066
STARLINK-31277          
1 59651U 24082W   24258.48817661  .00015420  00000+0  37579-3 0  9999
2 59651  43.0000 334.2764 0002349 273.9379  86.1209 15.40687185 22030
STARLINK-31799          
1 59652U 24082X   24258.59989619  .00002584  00000+0  69113-4 0  9992
2 59652  43.0023 333.3879 0001375 200.5073 159.5729 15.40696743 21905
STARLINK-31764          
1 59653U 24082Y   24258.69831906  .00003680  00000+0  95319-4 0  9994
2 59653  42.9950 333.2764 0000753 196.1050 163.9783 15.40698813 22055
STARLINK-31589          
1 59654U 24084A   24258.66513104  .00003450  00000+0  89789-4 0  9990
2 59654  43.0017 234.2529 0001484 255.6936 104.3756 15.40707270 21468
STARLINK-31665          
1 59655U 24084B   24258.22704044 -.00005957  00000+0 -13560-3 0  9997
2 59655  43.0037 236.9887 0000951 266.8636  93.2112 15.40668202 21368
STARLINK-31912          
1 59656U 24084C   24258.65165883  .00002545  00000+0  68095-4 0  9999
2 59656  43.0068 234.1537 0001709 284.4361  75.6306 15.40733825 21406
STARLINK-31904          
1 59657U 24084D   24258.64270911 -.00001753  00000+0 -34653-4 0  9993
2 59657  43.0062 234.0810 0000967 269.5788  90.4958 15.40744359 21363
STARLINK-31858          
1 59658U 24084E   24258.34547886 -.00006027  00000+0 -13726-3 0  9995
2 59658  43.0018 236.1534 0001044 271.8673  88.2064 15.40674673 21383
STARLINK-31881          
1 59659U 24084F   24258.62718159  .00001696  00000+0  47848-4 0  9998
2 59659  43.0027 234.8352 0001384 276.2315  83.8384 15.40705662 21396
STARLINK-31885          
1 59660U 24084G   24258.22029708 -.00010453  00000+0 -24359-3 0  9995
2 59660  43.0024 236.9367 0001167 245.5731 114.5003 15.40665461 21330
STARLINK-31880          
1 59661U 24084H   24258.42598001  .00017352  00000+0  42155-3 0  9992
2 59661  43.0013 235.9038 0001378 273.4173  86.6525 15.40711970 21365
STARLINK-31886          
1 59662U 24084J   24258.66065172 -.00002017  00000+0 -41042-4 0  9996
2 59662  43.0019 234.2116 0001325 240.2352 119.8373 15.40696193 21408
STARLINK-31909          
1 59663U 24084K   24258.63602517 -.00004018  00000+0 -89012-4 0  9996
2 59663  43.0005 234.0777 0001369 258.4937 101.5766 15.40685543 21404
STARLINK-31910          
1 59664U 24084L   24258.62256942  .00003732  00000+0  96576-4 0  9996
2 59664  43.0006 233.9237 0001317 288.9009  71.1705 15.40696992 21401
STARLINK-31894          
1 59665U 24084M   24258.94324809  .01367060  11961-2  15140-2 0  9995
2 59665  42.9855 207.1211 0009253 183.7640 224.6522 16.08855486 21735
STARLINK-31902          
1 59666U 24084N   24258.65618123 -.00005496  00000+0 -12452-3 0  9995
2 59666  43.0007 234.1795 0000928 254.6278 105.4476 15.40671846 21408
STARLINK-31913          
1 59667U 24084P   24258.62494865 -.00001229  00000+0 -22169-4 0  9995
2 59667  42.9998 234.8145 0002183 246.0290 114.0338 15.40688867 21398
STARLINK-31866          
1 59668U 24084Q   24258.63152366 -.00000677  00000+0 -89408-5 0  9990
2 59668  43.0028 233.9905 0001585 275.4039  84.6637 15.40701040 21473
STARLINK-31917          
1 59669U 24084R   24258.64048646  .00000808  00000+0  26608-4 0  9993
2 59669  43.0011 234.0611 0001354 271.5161  88.5540 15.40708844 21407
STARLINK-31860          
1 59670U 24084S   24258.35221191  .00015607  00000+0  38054-3 0  9991
2 59670  42.9991 236.1997 0000734 257.5948 102.4826 15.40666366 21362
STARLINK-31854          
1 59671U 24084T   24258.66275604  .00031773  00000+0  76505-3 0  9999
2 59671  43.0034 233.3860 0001786 269.4256  90.6396 15.40685813 21417
STARLINK-31842          
1 59672U 24084U   24258.34770848  .00008862  00000+0  21925-3 0  9994
2 59672  43.0024 236.1676 0001561 261.6172  98.4508 15.40686691 21354
STARLINK-31871          
1 59673U 24084V   24258.62929915 -.00004878  00000+0 -10966-3 0  9995
2 59673  43.0027 233.9736 0001577 265.6805  94.3871 15.40678655 21487
STARLINK-31875          
1 59674U 24084W   24258.22927113 -.00001026  00000+0 -17317-4 0  9990
2 59674  43.0032 236.9990 0001486 292.4924  67.5776 15.40679595 21365
STARLINK-31877          
1 59675U 24084X   24258.64495522  .00001182  00000+0  35516-4 0  9993
2 59675  43.0031 234.0900 0000766 279.0806  80.9964 15.40720346 21409
STARLINK-31884          
1 59676U 24084Y   24258.63378442 -.00006766  00000+0 -15498-3 0  9995
2 59676  43.0019 234.0316 0001631 265.8204  94.2466 15.40673227 21471
STARLINK-32108          
1 59682U 24086A   24258.72356580  .00005332  00000+0  13476-3 0  9993
2 59682  43.0021 255.2648 0001501 256.5361 103.5329 15.40711634 21063
STARLINK-32080          
1 59683U 24086B   24258.48665941  .00004690  00000+0  11951-3 0  9993
2 59683  43.0040 256.9343 0001181 267.0149  93.0573 15.40687710 21027
STARLINK-32091          
1 59684U 24086C   24258.69934055  .00004233  00000+0  10854-3 0  9996
2 59684  43.0022 257.7210 0001541 288.8514  71.2176 15.40703632 21037
STARLINK-32085          
1 59685U 24086D   24258.34383656 -.00000238  00000+0  15503-5 0  9994
2 59685  43.0001 259.3464 0000329 276.7139  83.3680 15.40689568 21064
STARLINK-32100          
1 59686U 24086E   24258.58334491  .00001640  00000+0  46530-4 0  9994
2 59686  43.0015 246.4847 0000865 300.1038 311.5839 15.40690593  5960
STARLINK-32089          
1 59687U 24086F   24258.68813470  .00002551  00000+0  68285-4 0  9998
2 59687  43.0025 257.6353 0000820 305.3038  54.7742 15.40712223 21036
STARLINK-32103          
1 59688U 24086G   24258.38417474 -.00002992  00000+0 -64445-4 0  9995
2 59688  43.0016 259.6569 0001131 297.7350  62.3391 15.40679159 21063
STARLINK-32105          
1 59689U 24086H   24258.30366584 -.00002165  00000+0 -44616-4 0  9993
2 59689  43.0052 259.9118 0001299 289.3593  70.7123 15.40674885 21054
STARLINK-32106          
1 59690U 24086J   24258.70606622 -.00000098  00000+0  49068-5 0  9998
2 59690  43.0013 257.7699 0000661 326.7509  33.3306 15.40692987 21037
STARLINK-32090          
1 59691U 24086K   24258.48244717  .00002351  00000+0  63512-4 0  9999
2 59691  43.0035 258.6685 0000851 272.9492  87.1267 15.40707380 20891
STARLINK-32095          
1 59692U 24086L   24258.69564054  .00003245  00000+0  84953-4 0  9997
2 59692  42.9947 250.6444 0000552 256.5180 103.5615 15.40683910 21115
STARLINK-32088          
1 59693U 24086M   24258.31261598 -.00001881  00000+0 -37817-4 0  9997
2 59693  42.9964 259.9757 0001222 312.8741  47.2013 15.40674763 21053
STARLINK-32107          
1 59694U 24086N   24258.72159915  .00012482  00000+0  30521-3 0  9993
2 59694  43.0077 257.0175 0004048 271.8834  88.1559 15.40733501 20885
STARLINK-32104          
1 59695U 24086P   24258.91667824  .00521313  00000+0  97695-2 0  9990
2 59695  42.9989 255.4974 0004341 160.2748   3.8906 15.45947973 21073
STARLINK-32094          
1 59696U 24086Q   24258.71712100 -.00005167  00000+0 -11650-3 0  9991
2 59696  43.0071 256.9791 0002925 272.1947  87.8574 15.40694673 20838
STARLINK-32099          
1 59697U 24086R   24258.69038760  .00008134  00000+0  20178-3 0  9992
2 59697  43.0030 257.6521 0001763 286.8271  73.2392 15.40699182 21034
STARLINK-32096          
1 59698U 24086S   24258.28126720 -.00001835  00000+0 -36711-4 0  9996
2 59698  43.0009 259.7331 0000667 268.6407  91.4373 15.40680461 21057
STARLINK-32102          
1 59699U 24086T   24258.48918404  .00001225  00000+0  36603-4 0  9998
2 59699  43.0053 258.7181 0001085 273.3898  86.6835 15.40692650 20849
STARLINK-32092          
1 59700U 24086U   24258.72832312  .00001426  00000+0  41378-4 0  9999
2 59700  43.0036 257.0683 0000515 254.8010 105.2790 15.40708747 21045
STARLINK-32093          
1 59701U 24086V   24258.40642879  .00038754  00000+0  92881-3 0  9990
2 59701  42.9992 258.9527 0000191 322.1439  37.9404 15.40747969 20991
STARLINK-32087          
1 59702U 24086W   24258.48019421  .00005592  00000+0  14093-3 0  9993
2 59702  43.0032 258.6487 0001161 295.1460  64.9276 15.40724124 20841
STARLINK-32086          
1 59703U 24086X   24258.69709489 -.00001021  00000+0 -17180-4 0  9993
2 59703  43.0045 257.6987 0001521 287.0520  73.0170 15.40706800 20976
STARLINK-32098          
1 59704U 24086Y   24258.40195071 -.00013216  00000+0 -30937-3 0  9992
2 59704  43.0002 258.9133 0000901 201.5449 158.5370 15.40728073 21078
STARLINK-11107 [DTC]    
1 59708U 24088A   24258.86390873 -.00002811  00000+0 -18348-4 0  9997
2 59708  53.1567 112.0490 0000844  83.5760 276.5354 15.69718082 21226
STARLINK-11088 [DTC]    
1 59709U 24088B   24258.85418467  .00103826  00000+0  84669-3 0  9991
2 59709  53.1555 112.7105 0000117 128.7220 231.3808 15.69836709 21220
STARLINK-11092 [DTC]    
1 59710U 24088C   24258.33993963  .00003656  00000+0  35027-4 0  9990
2 59710  53.1552 115.1916 0001303 112.7462 247.3694 15.69708870 21244
